E-SPACE_L_00018023-72
1 17991U 22010AQ  26075.70015046  .00000000  00000+0  00000-0 0  9994
2 17991  72.0000 220.0000 0000000   0.0000  73.4444 14.86302671    17
E-SPACE_L_00018023-73
1 17992U 25111LR  26075.70015046  .00000000  00000+0  00000-0 0  9990
2 17992  72.0000 220.0000 0000000   0.0000  74.4444 14.86302671    19
E-SPACE_L_00018023-74
1 17993U 23827DG  26075.70015046  .00000000  00000+0  00000-0 0  9993
2 17993  72.0000 220.0000 0000000   0.0000  75.4444 14.86302671    11
E-SPACE_L_00018023-75
1 17994U 22388T   26075.70015046  .00000000  00000+0  00000-0 0  9995
2 17994  72.0000 220.0000 0000000   0.0000  76.4444 14.86302671    13
E-SPACE_L_00018023-76
1 17995U 22899QM  26075.70015046  .00000000  00000+0  00000-0 0  9993
2 17995  72.0000 220.0000 0000000   0.0000  77.4444 14.86302671    15
E-SPACE_L_00018023-77
1 17996U 22664VY  26075.70015046  .00000000  00000+0  00000-0 0  9994
2 17996  72.0000 220.0000 0000000   0.0000  78.4444 14.86302671    17
E-SPACE_L_00018023-78
1 17997U 22560GU  26075.70015046  .00000000  00000+0  00000-0 0  9990
2 17997  72.0000 220.0000 0000000   0.0000  79.4444 14.86302671    19
E-SPACE_L_00018023-79
1 17998U 24282PH  26075.70015046  .00000000  00000+0  00000-0 0  9994
2 17998  72.0000 220.0000 0000000   0.0000  80.4444 14.86302671    12
E-SPACE_L_00018023-80
1 17999U 22814HD  26075.70015046  .00000000  00000+0  00000-0 0  9994
2 17999  72.0000 220.0000 0000000   0.0000  81.4444 14.86302671    14
E-SPACE_L_00018023-81
1 18000U 24849DZ  26075.70015046  .00000000  00000+0  00000-0 0  9998
2 18000  72.0000 220.0000 0000000   0.0000  82.4444 14.86302671    19
E-SPACE_L_00018023-82
1 18001U 25447HQ  26075.70015046  .00000000  00000+0  00000-0 0  9994
2 18001  72.0000 220.0000 0000000   0.0000  83.4444 14.86302671    11
E-SPACE_L_00018023-83
1 18002U 26304ER  26075.70015046  .00000000  00000+0  00000-0 0  9998
2 18002  72.0000 220.0000 0000000   0.0000  84.4444 14.86302671    13
E-SPACE_L_00018023-84
1 18003U 26918IN  26075.70015046  .00000000  00000+0  00000-0 0  9990
2 18003  72.0000 220.0000 0000000   0.0000  85.4444 14.86302671    15
E-SPACE_L_00018023-85
1 18004U 25351Z   26075.70015046  .00000000  00000+0  00000-0 0  9991
2 18004  72.0000 220.0000 0000000   0.0000  86.4444 14.86302671    17
E-SPACE_L_00018023-86
1 18005U 24488ZU  26075.70015046  .00000000  00000+0  00000-0 0  9992
2 18005  72.0000 220.0000 0000000   0.0000  87.4444 14.86302671    19
E-SPACE_L_00018023-87
1 18006U 23460WR  26075.70015046  .00000000  00000+0  00000-0 0  9992
2 18006  72.0000 220.0000 0000000   0.0000  88.4444 14.86302671    11
E-SPACE_L_00018023-88
1 18007U 25329PV  26075.70015046  .00000000  00000+0  00000-0 0  9999
2 18007  72.0000 220.0000 0000000   0.0000  89.4444 14.86302671    13
E-SPACE_L_00018023-89
1 18008U 26197GR  26075.70015046  .00000000  00000+0  00000-0 0  9994
2 18008  72.0000 220.0000 0000000   0.0000  90.4444 14.86302671    16
E-SPACE_L_00018023-90
1 18009U 26850ON  26075.70015046  .00000000  00000+0  00000-0 0  9991
2 18009  72.0000 220.0000 0000000   0.0000  91.4444 14.86302671    18
E-SPACE_L_00018023-91
1 18010U 25107ZC  26075.70015046  .00000000  00000+0  00000-0 0  9997
2 18010  72.0000 220.0000 0000000   0.0000  92.4444 14.86302671    11
E-SPACE_L_00018023-92
1 18011U 26593YL  26075.70015046  .00000000  00000+0  00000-0 0  9998
2 18011  72.0000 220.0000 0000000   0.0000  93.4444 14.86302671    13
E-SPACE_L_00018023-93
1 18012U 24703HU  26075.70015046  .00000000  00000+0  00000-0 0  9990
2 18012  72.0000 220.0000 0000000   0.0000  94.4444 14.86302671    15
E-SPACE_L_00018023-94
1 18013U 22209KR  26075.70015046  .00000000  00000+0  00000-0 0  9990
2 18013  72.0000 220.0000 0000000   0.0000  95.4444 14.86302671    17
E-SPACE_L_00018023-95
1 18014U 22584YY  26075.70015046  .00000000  00000+0  00000-0 0  9997
2 18014  72.0000 220.0000 0000000   0.0000  96.4444 14.86302671    19
E-SPACE_L_00018023-96
1 18015U 25745JH  26075.70015046  .00000000  00000+0  00000-0 0  9990
2 18015  72.0000 220.0000 0000000   0.0000  97.4444 14.86302671    11
E-SPACE_L_00018023-97
1 18016U 23865JN  26075.70015046  .00000000  00000+0  00000-0 0  9992
2 18016  72.0000 220.0000 0000000   0.0000  98.4444 14.86302671    13
E-SPACE_L_00018023-98
1 18017U 26774HC  26075.70015046  .00000000  00000+0  00000-0 0  9995
2 18017  72.0000 220.0000 0000000   0.0000  99.4444 14.86302671    15
E-SPACE_L_00018023-99
1 18018U 23453XS  26075.70015046  .00000000  00000+0  00000-0 0  9997
2 18018  72.0000 220.0000 0000000   0.0000 100.4444 14.86302671    19
E-SPACE_L_00018023-100
1 18019U 26114UZ  26075.70015046  .00000000  00000+0  00000-0 0  9995
2 18019  72.0000 220.0000 0000000   0.0000 101.4444 14.86302671    11
E-SPACE_L_00018023-101
1 18020U 24664GX  26075.70015046  .00000000  00000+0  00000-0 0  9995
2 18020  72.0000 220.0000 0000000   0.0000 102.4444 14.86302671    14
E-SPACE_L_00018023-102
1 18021U 23072FH  26075.70015046  .00000000  00000+0  00000-0 0  9998
2 18021  72.0000 220.0000 0000000   0.0000 103.4444 14.86302671    16
E-SPACE_L_00018023-103
1 18022U 24168IL  26075.70015046  .00000000  00000+0  00000-0 0  9996
2 18022  72.0000 220.0000 0000000   0.0000 104.4444 14.86302671    18
E-SPACE_L_00018023-104
1 18023U 23866KK  26075.70015046  .00000000  00000+0  00000-0 0  9991
2 18023  72.0000 220.0000 0000000   0.0000 105.4444 14.86302671    10
E-SPACE_L_00018023-105
1 18024U 23617NC  26075.70015046  .00000000  00000+0  00000-0 0  9996
2 18024  72.0000 220.0000 0000000   0.0000 106.4444 14.86302671    12
E-SPACE_L_00018023-106
1 18025U 24371DY  26075.70015046  .00000000  00000+0  00000-0 0  9995
2 18025  72.0000 220.0000 0000000   0.0000 107.4444 14.86302671    14
E-SPACE_L_00018023-107
1 18026U 23568ZK  26075.70015046  .00000000  00000+0  00000-0 0  9993
2 18026  72.0000 220.0000 0000000   0.0000 108.4444 14.86302671    16
E-SPACE_L_00018023-108
1 18027U 26310AH  26075.70015046  .00000000  00000+0  00000-0 0  9992
2 18027  72.0000 220.0000 0000000   0.0000 109.4444 14.86302671    18
E-SPACE_L_00018023-109
1 18028U 23046NK  26075.70015046  .00000000  00000+0  00000-0 0  9996
2 18028  72.0000 220.0000 0000000   0.0000 110.4444 14.86302671    11
E-SPACE_L_00018023-110
1 18029U 25618RF  26075.70015046  .00000000  00000+0  00000-0 0  9994
2 18029  72.0000 220.0000 0000000   0.0000 111.4444 14.86302671    13
E-SPACE_L_00018023-111
1 18030U 24272ZY  26075.70015046  .00000000  00000+0  00000-0 0  9991
2 18030  72.0000 220.0000 0000000   0.0000 112.4444 14.86302671    16
E-SPACE_L_00018023-112
1 18031U 25312GO  26075.70015046  .00000000  00000+0  00000-0 0  9998
2 18031  72.0000 220.0000 0000000   0.0000 113.4444 14.86302671    18
E-SPACE_L_00018023-113
1 18032U 23387IH  26075.70015046  .00000000  00000+0  00000-0 0  9999
2 18032  72.0000 220.0000 0000000   0.0000 114.4444 14.86302671    10
E-SPACE_L_00018023-114
1 18033U 25529KN  26075.70015046  .00000000  00000+0  00000-0 0  9990
2 18033  72.0000 220.0000 0000000   0.0000 115.4444 14.86302671    12
E-SPACE_L_00018023-115
1 18034U 23434SV  26075.70015046  .00000000  00000+0  00000-0 0  9994
2 18034  72.0000 220.0000 0000000   0.0000 116.4444 14.86302671    14
E-SPACE_L_00018023-116
1 18035U 22290SD  26075.70015046  .00000000  00000+0  00000-0 0  9994
2 18035  72.0000 220.0000 0000000   0.0000 117.4444 14.86302671    16
E-SPACE_L_00018023-117
1 18036U 25220QB  26075.70015046  .00000000  00000+0  00000-0 0  9991
2 18036  72.0000 220.0000 0000000   0.0000 118.4444 14.86302671    18
E-SPACE_L_00018023-118
1 18037U 24683QT  26075.70015046  .00000000  00000+0  00000-0 0  9994
2 18037  72.0000 220.0000 0000000   0.0000 119.4444 14.86302671    10
E-SPACE_L_00018023-119
1 18038U 25812BF  26075.70015046  .00000000  00000+0  00000-0 0  9990
2 18038  72.0000 220.0000 0000000   0.0000 120.4444 14.86302671    13
E-SPACE_L_00018023-120
1 18039U 22337ZU  26075.70015046  .00000000  00000+0  00000-0 0  9990
2 18039  72.0000 220.0000 0000000   0.0000 121.4444 14.86302671    15
E-SPACE_L_00018023-121
1 18040U 24447QL  26075.70015046  .00000000  00000+0  00000-0 0  9996
2 18040  72.0000 220.0000 0000000   0.0000 122.4444 14.86302671    18
E-SPACE_L_00018023-122
1 18041U 26068HB  26075.70015046  .00000000  00000+0  00000-0 0  9998
2 18041  72.0000 220.0000 0000000   0.0000 123.4444 14.86302671    10
E-SPACE_L_00018023-123
1 18042U 23936MP  26075.70015046  .00000000  00000+0  00000-0 0  9990
2 18042  72.0000 220.0000 0000000   0.0000 124.4444 14.86302671    12
E-SPACE_L_00018023-124
1 18043U 26956XA  26075.70015046  .00000000  00000+0  00000-0 0  9996
2 18043  72.0000 220.0000 0000000   0.0000 125.4444 14.86302671    14
E-SPACE_L_00018023-125
1 18044U 24510FA  26075.70015046  .00000000  00000+0  00000-0 0  9991
2 18044  72.0000 220.0000 0000000   0.0000 126.4444 14.86302671    16
E-SPACE_L_00018023-126
1 18045U 24193QI  26075.70015046  .00000000  00000+0  00000-0 0  9999
2 18045  72.0000 220.0000 0000000   0.0000 127.4444 14.86302671    18
E-SPACE_L_00018023-127
1 18046U 23422LW  26075.70015046  .00000000  00000+0  00000-0 0  9994
2 18046  72.0000 220.0000 0000000   0.0000 128.4444 14.86302671    10
E-SPACE_L_00018023-128
1 18047U 24539KC  26075.70015046  .00000000  00000+0  00000-0 0  9995
2 18047  72.0000 220.0000 0000000   0.0000 129.4444 14.86302671    12
E-SPACE_L_00018023-129
1 18048U 25990YO  26075.70015046  .00000000  00000+0  00000-0 0  9998
2 18048  72.0000 220.0000 0000000   0.0000 130.4444 14.86302671    15
E-SPACE_L_00018023-130
1 18049U 24789EG  26075.70015046  .00000000  00000+0  00000-0 0  9994
2 18049  72.0000 220.0000 0000000   0.0000 131.4444 14.86302671    17
E-SPACE_L_00018023-131
1 18050U 26607HC  26075.70015046  .00000000  00000+0  00000-0 0  9997
2 18050  72.0000 220.0000 0000000   0.0000 132.4444 14.86302671    10
E-SPACE_L_00018023-132
1 18051U 23626EQ  26075.70015046  .00000000  00000+0  00000-0 0  9996
2 18051  72.0000 220.0000 0000000   0.0000 133.4444 14.86302671    12
